[
    {
        "Altitude(m)": 570115.1471419586,
        "Argument of Periapsis(deg)": 0.006622991110713501,
        "Eccentricity": 0.0,
        "Inclination(deg)": 53.0,
        "Latitude(deg)": -48.76471067859257,
        "Longitude(deg)": 135.4655549538542,
        "Mean Anomaly(deg)": -69.90840713242241,
        "RAAN(deg)": 294.99014336852804,
        "Satellite Name": "Starlink Shell 1 1315",
        "Satellite Number": 1315,
        "Semi-Major Axis(m)": 6931778.249405717,
        "Time(s)": 190
    },
    {
        "Altitude(m)": 570009.583872798,
        "Argument of Periapsis(deg)": 0.0069715695902247375,
        "Eccentricity": 0.0,
        "Inclination(deg)": 53.0,
        "Latitude(deg)": -48.502470994063245,
        "Longitude(deg)": 136.28042624491476,
        "Mean Anomaly(deg)": -69.28157592886569,
        "RAAN(deg)": 294.9896245984506,
        "Satellite Name": "Starlink Shell 1 1315",
        "Satellite Number": 1315,
        "Semi-Major Axis(m)": 6931778.249405717,
        "Time(s)": 200
    },
    {
        "Altitude(m)": 569901.2691177124,
        "Argument of Periapsis(deg)": 0.007320148069735974,
        "Eccentricity": 0.0,
        "Inclination(deg)": 53.0,
        "Latitude(deg)": -48.233915621672786,
        "Longitude(deg)": 137.08642385755195,
        "Mean Anomaly(deg)": -68.65474472530902,
        "RAAN(deg)": 294.9891058283731,
        "Satellite Name": "Starlink Shell 1 1315",
        "Satellite Number": 1315,
        "Semi-Major Axis(m)": 6931778.249405717,
        "Time(s)": 210
    },
    {
        "Altitude(m)": 569790.2458038796,
        "Argument of Periapsis(deg)": 0.007668726549247212,
        "Eccentricity": 0.0,
        "Inclination(deg)": 53.0,
        "Latitude(deg)": -47.95916750308355,
        "Longitude(deg)": 137.88351823524044,
        "Mean Anomaly(deg)": -68.02791352175223,
        "RAAN(deg)": 294.9885870582956,
        "Satellite Name": "Starlink Shell 1 1315",
        "Satellite Number": 1315,
        "Semi-Major Axis(m)": 6931778.249405717,
        "Time(s)": 220
    },
    {
        "Altitude(m)": 569676.5579126133,
        "Argument of Periapsis(deg)": 0.00801730502875845,
        "Eccentricity": 0.0,
        "Inclination(deg)": 53.0,
        "Latitude(deg)": -47.67834922950009,
        "Longitude(deg)": 138.67169151000456,
        "Mean Anomaly(deg)": -67.4010823181956,
        "RAAN(deg)": 294.98806828821813,
        "Satellite Name": "Starlink Shell 1 1315",
        "Satellite Number": 1315,
        "Semi-Major Axis(m)": 6931778.249405717,
        "Time(s)": 230
    },
    {
        "Altitude(m)": 569560.2504601679,
        "Argument of Periapsis(deg)": 0.008365883508269684,
        "Eccentricity": 0.0,
        "Inclination(deg)": 53.0,
        "Latitude(deg)": -47.391582879223115,
        "Longitude(deg)": 139.45093746634714,
        "Mean Anomaly(deg)": -66.77425111463883,
        "RAAN(deg)": 294.9875495181407,
        "Satellite Name": "Starlink Shell 1 1315",
        "Satellite Number": 1315,
        "Semi-Major Axis(m)": 6931778.249405717,
        "Time(s)": 240
    },
    {
        "Altitude(m)": 569441.3694780513,
        "Argument of Periapsis(deg)": 0.008714461987780921,
        "Eccentricity": 0.0,
        "Inclination(deg)": 53.0,
        "Latitude(deg)": -47.09898986616194,
        "Longitude(deg)": 140.22125998643057,
        "Mean Anomaly(deg)": -66.14741991108205,
        "RAAN(deg)": 294.9870307480632,
        "Satellite Name": "Starlink Shell 1 1315",
        "Satellite Number": 1315,
        "Semi-Major Axis(m)": 6931778.249405717,
        "Time(s)": 250
    },
    {
        "Altitude(m)": 569319.9619929052,
        "Argument of Periapsis(deg)": 0.009063040467292158,
        "Eccentricity": 0.0,
        "Inclination(deg)": 53.0,
        "Latitude(deg)": -46.80069079919323,
        "Longitude(deg)": 140.98267300566926,
        "Mean Anomaly(deg)": -65.52058870752542,
        "RAAN(deg)": 294.98651197798574,
        "Satellite Name": "Starlink Shell 1 1315",
        "Satellite Number": 1315,
        "Semi-Major Axis(m)": 6931778.249405717,
        "Time(s)": 260
    },
    {
        "Altitude(m)": 569196.0760059508,
        "Argument of Periapsis(deg)": 0.009411618946803396,
        "Eccentricity": 0.0,
        "Inclination(deg)": 53.0,
        "Latitude(deg)": -46.49680535219327,
        "Longitude(deg)": 141.73520046898616,
        "Mean Anomaly(deg)": -64.89375750396877,
        "RAAN(deg)": 294.9859932079082,
        "Satellite Name": "Starlink Shell 1 1315",
        "Satellite Number": 1315,
        "Semi-Major Axis(m)": 6931778.249405717,
        "Time(s)": 270
    },
    {
        "Altitude(m)": 569069.7604719491,
        "Argument of Periapsis(deg)": 0.009760197426314633,
        "Eccentricity": 0.0,
        "Inclination(deg)": 53.0,
        "Latitude(deg)": -46.187452144518396,
        "Longitude(deg)": 142.4788747777007,
        "Mean Anomaly(deg)": -64.26692630041197,
        "RAAN(deg)": 294.98547443783076,
        "Satellite Name": "Starlink Shell 1 1315",
        "Satellite Number": 1315,
        "Semi-Major Axis(m)": 6931778.249405717,
        "Time(s)": 280
    },
    {
        "Altitude(m)": 568941.0652777806,
        "Argument of Periapsis(deg)": 0.01010877590582587,
        "Eccentricity": 0.0,
        "Inclination(deg)": 53.0,
        "Latitude(deg)": -45.87274863167007,
        "Longitude(deg)": 143.21373675534068,
        "Mean Anomaly(deg)": -63.64009509685527,
        "RAAN(deg)": 294.98495566775335,
        "Satellite Name": "Starlink Shell 1 1315",
        "Satellite Number": 1315,
        "Semi-Major Axis(m)": 6931778.249405717,
        "Time(s)": 290
    },
    {
        "Altitude(m)": 568810.0412205762,
        "Argument of Periapsis(deg)": 0.010457354385337106,
        "Eccentricity": 0.0,
        "Inclination(deg)": 53.0,
        "Latitude(deg)": -45.5528110058373,
        "Longitude(deg)": 143.93983562177937,
        "Mean Anomaly(deg)": -63.01326389329857,
        "RAAN(deg)": 294.98443689767583,
        "Satellite Name": "Starlink Shell 1 1315",
        "Satellite Number": 1315,
        "Semi-Major Axis(m)": 6931778.249405717,
        "Time(s)": 300
    },
    {
        "Altitude(m)": 568676.7399854361,
        "Argument of Periapsis(deg)": 0.010805932864848343,
        "Eccentricity": 0.0,
        "Inclination(deg)": 53.0,
        "Latitude(deg)": -45.22775410597868,
        "Longitude(deg)": 144.65722746482427,
        "Mean Anomaly(deg)": -62.38643268974189,
        "RAAN(deg)": 294.9839181275984,
        "Satellite Name": "Starlink Shell 1 1315",
        "Satellite Number": 1315,
        "Semi-Major Axis(m)": 6931778.249405717,
        "Time(s)": 310
    },
    {
        "Altitude(m)": 568541.2141227622,
        "Argument of Periapsis(deg)": 0.01115451134435958,
        "Eccentricity": 0.0,
        "Inclination(deg)": 53.0,
        "Latitude(deg)": -44.89769133708513,
        "Longitude(deg)": 145.36597523673785,
        "Mean Anomaly(deg)": -61.75960148618509,
        "RAAN(deg)": 294.9833993575209,
        "Satellite Name": "Starlink Shell 1 1315",
        "Satellite Number": 1315,
        "Semi-Major Axis(m)": 6931778.249405717,
        "Time(s)": 320
    },
    {
        "Altitude(m)": 568403.5170251832,
        "Argument of Periapsis(deg)": 0.011503089823870818,
        "Eccentricity": 0.0,
        "Inclination(deg)": 53.0,
        "Latitude(deg)": -44.5627345982403,
        "Longitude(deg)": 146.06614876430606,
        "Mean Anomaly(deg)": -61.13277028262839,
        "RAAN(deg)": 294.98288058744345,
        "Satellite Name": "Starlink Shell 1 1315",
        "Satellite Number": 1315,
        "Semi-Major Axis(m)": 6931778.249405717,
        "Time(s)": 330
    },
    {
        "Altitude(m)": 568263.7029040861,
        "Argument of Periapsis(deg)": 0.011851668303382053,
        "Eccentricity": 0.0,
        "Inclination(deg)": 53.0,
        "Latitude(deg)": -44.2229942190778,
        "Longitude(deg)": 146.75782326084177,
        "Mean Anomaly(deg)": -60.505939079071744,
        "RAAN(deg)": 294.9823618173659,
        "Satellite Name": "Starlink Shell 1 1315",
        "Satellite Number": 1315,
        "Semi-Major Axis(m)": 6931778.249405717,
        "Time(s)": 340
    },
    {
        "Altitude(m)": 568121.8267657944,
        "Argument of Periapsis(deg)": 0.012200246782893292,
        "Eccentricity": 0.0,
        "Inclination(deg)": 53.0,
        "Latitude(deg)": -43.87857890423286,
        "Longitude(deg)": 147.44107936689315,
        "Mean Anomaly(deg)": -59.879107875515,
        "RAAN(deg)": 294.98184304728846,
        "Satellite Name": "Starlink Shell 1 1315",
        "Satellite Number": 1315,
        "Semi-Major Axis(m)": 6931778.249405717,
        "Time(s)": 350
    },
    {
        "Altitude(m)": 567977.9443873714,
        "Argument of Periapsis(deg)": 0.012548825262404526,
        "Eccentricity": 0.0,
        "Inclination(deg)": 53.0,
        "Latitude(deg)": -43.52959568537197,
        "Longitude(deg)": 148.11600320761744,
        "Mean Anomaly(deg)": -59.2522766719582,
        "RAAN(deg)": 294.981324277211,
        "Satellite Name": "Starlink Shell 1 1315",
        "Satellite Number": 1315,
        "Semi-Major Axis(m)": 6931778.249405717,
        "Time(s)": 360
    },
    {
        "Altitude(m)": 567832.1122920698,
        "Argument of Periapsis(deg)": 0.012897403741915765,
        "Eccentricity": 0.0,
        "Inclination(deg)": 53.0,
        "Latitude(deg)": -43.176149880381004,
        "Longitude(deg)": 148.78268495458803,
        "Mean Anomaly(deg)": -58.62544546840156,
        "RAAN(deg)": 294.98080550713354,
        "Satellite Name": "Starlink Shell 1 1315",
        "Satellite Number": 1315,
        "Semi-Major Axis(m)": 6931778.249405717,
        "Time(s)": 370
    }
]